[{"OBJECT_NAME":"VIGORIDE-3","OBJECT_ID":"2022-057AE","EPOCH":"2026-03-09T22:06:57.048768","MEAN_MOTION":15.2610122,"ECCENTRICITY":0.00097778,"INCLINATION":97.6431,"RA_OF_ASC_NODE":206.4459,"ARG_OF_PERICENTER":111.2279,"MEAN_ANOMALY":249.0004,"EPHEMERIS_TYPE":0,"CLASSIFICATION_TYPE":"U","NORAD_CAT_ID":52760,"ELEMENT_SET_NO":999,"REV_AT_EPOCH":21001,"BSTAR":0.00033325795,"MEAN_MOTION_DOT":8.532e-5,"MEAN_MOTION_DDOT":0},{"OBJECT_NAME":"STARLINK-31747","OBJECT_ID":"2024-076A","EPOCH":"2026-03-09T03:46:34.440384","MEAN_MOTION":15.27569115,"ECCENTRICITY":0.00023006,"INCLINATION":43.0044,"RA_OF_ASC_NODE":1.4223,"ARG_OF_PERICENTER":246.2125,"MEAN_ANOMALY":113.8486,"EPHEMERIS_TYPE":0,"CLASSIFICATION_TYPE":"U","NORAD_CAT_ID":59564,"ELEMENT_SET_NO":999,"REV_AT_EPOCH":10653,"BSTAR":-6.7479256e-5,"MEAN_MOTION_DOT":-2.118e-5,"MEAN_MOTION_DDOT":0}]
